0 BONUM 1
1 25546U 98068A   13282.13183825  .00000065  00000-0  10000-3 0  4945
2 25546 001.6892 075.0842 0001845 095.7469 310.5802 01.00273810 54587
0 BONUM 1
1 25546U 98068A   13283.13468126  .00000062  00000-0  10000-3 0  4954
2 25546 001.6914 075.0738 0001843 095.8075 312.5469 01.00274075 54594
0 BONUM 1
1 25546U 98068A   13284.15463301  .00000059  00000-0  10000-3 0  4964
2 25546 001.6936 075.0693 0001904 095.2246 321.3278 01.00274323 54604
0 BONUM 1
1 25546U 98068A   13287.05713617  .00000054  00000-0  10000-3 0  4970
2 25546 001.7006 075.0784 0002068 088.8533 295.4303 01.00270976 54636
0 BONUM 1
1 25546U 98068A   13288.14351810  .00000054  00000-0  10000-3 0  4985
2 25546 001.7031 075.0722 0002025 092.9491 323.5056 01.00271375 54641
0 BONUM 1
1 25546U 98068A   13289.15815572  .00000055  00000-0  10000-3 0  4999
2 25546 001.7053 075.0627 0001966 096.3291 326.4031 01.00271762 54654
0 BONUM 1
1 25546U 98068A   13289.98303264  .00000000  00000-0  10000-3 0  5003
2 25546 001.7070 075.0564 0001948 100.3716 260.1373 01.00268314 54664
0 BONUM 1
1 25546U 98068A   13290.66848141  .00000058  00000-0  10000-3 0  5001
2 25546 001.7085 075.0463 0001948 100.8159 147.1410 01.00272407 54668
0 BONUM 1
1 25546U 98068A   13291.69679838  .00000059  00000-0  10000-3 0  5012
2 25546 001.7107 075.0347 0001911 103.1515 156.0237 01.00272631 54672
0 BONUM 1
1 25546U 98068A   13292.91409876  .00000062  00000-0  10000-3 0  5026
2 25546 001.7133 075.0212 0001968 100.8937 237.7242 01.00272911 54681
0 BONUM 1
1 25546U 98068A   13293.92150067  .00000063  00000-0  10000-3 0  5035
2 25546 001.7154 075.0142 0001953 102.2024 240.0791 01.00273086 54694
0 BONUM 1
1 25546U 98068A   13294.93446675  .00000065  00000-0  10000-3 0  5043
2 25546 001.7175 075.0028 0001953 102.0038 245.9561 01.00273302 54705
